STARLINK-2624           
1 48358U 21038F   26068.23955829 -.00004096  00000+0 -12629-3 0  9990
2 48358  53.1620   0.2505 0001186  92.5071 267.6066 15.30187215267000
TEVEL2-4                
1 63213U 25052D   26068.69417973  .00020990  00000+0  70363-3 0  9998
2 63213  97.4009 325.1237 0004733  95.3468 264.8313 15.30925813 54879
